OPS 6582 (TRANSIT 5B-5) 
1 00965U 64083D   22280.37655785  .00000081  00000+0  10150-3 0  9999
2 00965  90.0341 195.7830 0039096 261.8192 224.9264 13.56789294861264
OSCAR 7 (AO-7)          
1 07530U 74089B   22280.47206258 -.00000014  00000+0  20028-3 0  9991
2 07530 101.9187 260.7452 0012046 185.9926 291.8173 12.53657586191508
UOSAT 2 (UO-11)         
1 14781U 84021B   22280.39872016  .00002056  00000+0  25385-3 0  9994
2 14781  97.6292 262.8029 0007376 323.0098  37.0608 14.83853840 56644
NOAA 9                  
1 15427U 84123A   22280.44168333  .00000199  00000+0  12354-3 0  9999
2 15427  99.0593 254.6521 0014311 205.0680 267.5926 14.16229232952467
LUSAT (LO-19)           
1 20442U 90005G   22280.44078753  .00000263  00000+0  11251-3 0  9991
2 20442  98.8084 247.0852 0011340 195.1020 164.9827 14.33093608709141
ITAMSAT (IO-26)         
1 22826U 93061D   22280.09785267  .00000194  00000+0  92170-4 0  9993
2 22826  98.8728 313.3222 0009990  75.0529 285.1758 14.30545763514379
RADIO ROSTO (RS-15)     
1 23439U 94085A   22280.58989880 -.00000039  00000+0  10000-3 0  9992
2 23439  64.8213 324.2465 0168056 253.3960 104.8453 11.27572737144137
JAS-2 (FO-29)           
1 24278U 96046B   22280.30850866  .00000061  00000+0  99033-4 0  9992
2 24278  98.5156 288.6010 0350185 353.2317   6.4160 13.53121568290733
NOAA 15                 
1 25338U 98030A   22280.46257021  .00000229  00000+0  11388-3 0  9998
2 25338  98.6366 308.4941 0009801 336.7716  23.3020 14.26178712269232
TECHSAT 1B (GO-32)      
1 25397U 98043D   22280.44850896  .00000145  00000+0  83260-4 0  9990
2 25397  98.8298 231.2687 0002039 118.5154 241.6230 14.23775766259361
ISS (ZARYA)             
1 25544U 98067A   22280.89707507  .00013607  00000+0  24760-3 0  9995
2 25544  51.6418 138.1850 0002969 267.2216 190.2185 15.49810689362665
ORSTED                  
1 25635U 99008B   22280.11939486  .00000861  00000+0  21065-3 0  9993
2 25635  96.4473 118.8379 0137854 184.1307 175.8765 14.48548994246440
PHASE 3D (AO-40)        
1 26609U 00072B   22280.04548771 -.00000024  00000+0  00000+0 0  9997
2 26609   5.6137 243.0161 7977306  64.5294 354.8044  1.25588855100559
PCSAT (NO-44)           
1 26931U 01043C   22280.30085154  .00000239  00000+0  12284-3 0  9992
2 26931  67.0497 129.6954 0005626 258.9933 101.0535 14.30741404 97403
SAUDISAT 1C (SO-50)     
1 27607U 02058C   22280.43945990  .00001726  00000+0  25540-3 0  9998
2 27607  64.5547 319.1696 0081656 273.0804  86.0957 14.76292044 64903
CUTE-1 (CO-55)          
1 27844U 03031E   22280.47747618  .00000451  00000+0  22145-3 0  9996
2 27844  98.6815 286.4863 0010627 133.2336 226.9731 14.22507364999795
CUBESAT XI-IV (CO-57)   
1 27848U 03031J   22280.47558826  .00000387  00000+0  19457-3 0  9991
2 27848  98.6856 286.9793 0010317 146.7700 213.4127 14.22056959999600
MOZHAYETS 4 (RS-22)     
1 27939U 03042A   22280.42967117  .00001747  00000+0  31670-3 0  9998
2 27939  98.2081  61.2305 0012393 209.8878 150.1636 14.67508935 17465
INMARSAT 4-F1           
1 28628U 05009A   22280.45674351 -.00000275  00000+0  00000+0 0  9992
2 28628   3.6954  36.1654 0003064 164.7988 123.0590  1.00271668 64142
NOAA 18                 
1 28654U 05018A   22280.46007983  .00000246  00000+0  15653-3 0  9994
2 28654  98.9396 350.7575 0014395  19.1472 341.0238 14.12785779895799
CUBESAT XI-V            
1 28895U 05043F   22280.30173585  .00002310  00000+0  44370-3 0  9996
2 28895  98.1218  50.0611 0017257 146.0969 214.1341 14.64532723903783
METOP-A                 
1 29499U 06044A   22280.47394564  .00002084  00000+0  28279-3 0  9997
2 29499  98.4402 328.5937 0197637  17.1458  94.5975 14.67449065827101
CARTOSAT-2 (IRS-P7)     
1 29710U 07001B   22280.32344599  .00030424  00000+0  69415-3 0  9990
2 29710  97.8730  32.5657 0141841  24.6182 336.1742 15.32865646853351
FALCONSAT-3             
1 30776U 07006E   22280.31454852  .00129037  00000+0  13498-2 0  9990
2 30776  35.4278 243.1143 0003352 240.6272 119.4128 15.63061302867035
CAPE-1                  
1 31130U 07012P   22280.30086450  .00002592  00000+0  55006-3 0  9994
2 31130  98.2763 220.1304 0093847 307.3774  51.8905 14.57304782821380
CARTOSAT-2A             
1 32783U 08021A   22280.41302715  .00001463  00000+0  20639-3 0  9997
2 32783  97.9546 339.4454 0013243 161.3959 198.7760 14.78662572779564
CUTE-1.7+APD II (CO-65) 
1 32785U 08021C   22280.12845551  .00005127  00000+0  53690-3 0  9991
2 32785  97.6706 247.5366 0011412 217.3429 142.6997 14.89974242783110
COMPASS-1               
1 32787U 08021E   22280.40770094  .00009404  00000+0  82960-3 0  9997
2 32787  97.5730 258.6790 0013011 126.1166 234.1263 14.96551136784793
AAUSAT-II               
1 32788U 08021F   22279.93250815  .00009422  00000+0  79386-3 0  9996
2 32788  97.5437 261.4186 0012337 104.4301 255.8292 14.98345923785126
DELFI-C3 (DO-64)        
1 32789U 08021G   22280.31016513  .00030374  00000+0  15645-2 0  9993
2 32789  97.3334 302.7045 0007682 298.9703  61.0760 15.16314417788862
SEEDS II (CO-66)        
1 32791U 08021J   22279.90517731  .00005853  00000+0  56415-3 0  9992
2 32791  97.6240 252.7001 0012714 170.6234 189.5226 14.93226920783826
YUBILEINY (RS-30)       
1 32953U 08025A   22280.32987616  .00000024  00000+0  10000-3 0  9992
2 32953  82.4987 114.3720 0019766  17.7462 342.4307 12.43113695652232
FENGYUN 3A              
1 32958U 08026A   22280.39153485  .00000198  00000+0  11535-3 0  9990
2 32958  98.5166 238.5155 0009770  62.5299 297.6869 14.18745828744201
PRISM (HITOMI)          
1 33493U 09002B   22280.39615334  .00011568  00000+0  91315-3 0  9993
2 33493  98.2448 273.4529 0014379 166.7587 193.4015 15.00807907745764
STARS (KUKAI)           
1 33498U 09002G   22280.26885116  .00003567  00000+0  47528-3 0  9998
2 33498  98.1531 174.0959 0009259 249.7851 110.2365 14.80272905737971
KKS-1 (KISEKI)          
1 33499U 09002H   22280.49885003  .00001615  00000+0  24124-3 0  9998
2 33499  98.1995 164.3104 0008222 324.7443  35.3221 14.76166227736779
NOAA 19                 
1 33591U 09005A   22280.47407392  .00000248  00000+0  15897-3 0  9991
2 33591  99.1384 316.9149 0013185 230.8242 129.1759 14.12618446704001
SWISSCUBE               
1 35932U 09051B   22280.11533198  .00001344  00000+0  30964-3 0  9998
2 35932  98.5532 139.1042 0008667  66.9951 293.2160 14.56992884692353
BEESAT-1                
1 35933U 09051C   22280.06972431  .00001077  00000+0  25036-3 0  9997
2 35933  98.5469 140.6068 0006933  78.3898 281.8078 14.56992548692425
ITUPSAT1                
1 35935U 09051E   22280.15573319  .00001099  00000+0  26008-3 0  9995
2 35935  98.5568 140.7209 0009235  81.1481 279.0761 14.56092987692137
XIWANG-1 (HOPE-1)       
1 36122U 09072B   22280.37617429 -.00000031  00000+0  32246-4 0  9990
2 36122 100.1981 247.6867 0008164  83.9434 276.2610 13.16372650615534
CARTOSAT-2B             
1 36795U 10035A   22280.38291854  .00000835  00000+0  12102-3 0  9997
2 36795  97.9487 339.4858 0012526 238.8017 121.1971 14.78628982660606
TISAT 1                 
1 36799U 10035E   22280.16708814  .00005299  00000+0  50982-3 0  9993
2 36799  98.1692 134.9806 0013194  88.1247 272.1482 14.93379800664433
FENGYUN 3B              
1 37214U 10059A   22280.55715846  .00000018  00000+0  33299-4 0  9995
2 37214  99.0947 288.5332 0022815  41.2398 319.0497 14.14267215616800
JUGNU                   
1 37839U 11058B   22280.13704481  .00000540  00000+0  14486-3 0  9991
2 37839  19.9603 218.0449 0018697 308.3708  82.2055 14.12813909567950
SRMSAT                  
1 37841U 11058D   22280.36426865  .00000529  00000+0  14594-3 0  9993
2 37841  19.9723 298.4506 0012022 132.9101 255.6299 14.10778638567061
M-CUBED & EXP-1 PRIME   
1 37855U 11061F   22280.44486315  .00021089  00000+0  87391-3 0  9996
2 37855 101.7205  99.0783 0147137  86.2598 275.5429 15.14574447598179
HORYU-2                 
1 38340U 12025D   22280.21055359  .00003196  00000+0  46161-3 0  9991
2 38340  98.1885   0.2514 0010519 225.2385 134.7969 14.76909765548734
METOP-B                 
1 38771U 12049A   22280.48593433  .00000169  00000+0  97100-4 0  9991
2 38771  98.7175 338.5983 0001733  84.4966  40.1996 14.21479371521652
SARAL                   
1 39086U 13009A   22280.53112724  .00000180  00000+0  83153-4 0  9990
2 39086  98.5486 104.5228 0000649  25.9156 334.2060 14.32033326502526
AAUSAT 3                
1 39087U 13009B   22280.50859105  .00000667  00000+0  24274-3 0  9997
2 39087  98.3932 117.2254 0011574 294.5634  65.4376 14.36272565503668
STRAND-1                
1 39090U 13009E   22280.25562239  .00000472  00000+0  17964-3 0  9994
2 39090  98.3987 115.4560 0008085 303.0813  56.9596 14.35338263503431
BRITE-AUSTRIA           
1 39091U 13009F   22280.45127214  .00000263  00000+0  10654-3 0  9994
2 39091  98.4006 114.8323 0009562 309.1062  50.9273 14.35308201503490
UNIBRITE                
1 39092U 13009G   22280.41330180  .00000293  00000+0  11751-3 0  9991
2 39092  98.4041 114.5785 0008429 304.5766  55.4624 14.35178956503447
SOMP                    
1 39134U 13015E   22280.34824527  .00043166  00000+0  13799-2 0  9999
2 39134  64.8608  53.9087 0034768 263.5238  96.1936 15.31609372523970
BEESAT-3                
1 39135U 13015F   22280.47851081  .00024210  00000+0  92041-3 0  9996
2 39135  64.8645  92.3991 0038887 266.4398  93.2284 15.26049897523628
BEESAT-2                
1 39136U 13015G   22280.20927147  .00023745  00000+0  94736-3 0  9990
2 39136  64.8734 102.1373 0023216 292.0760  67.7905 15.24913291522946
NEE-01 PEGASO           
1 39151U 13018B   22280.25686481  .00003393  00000+0  44187-3 0  9990
2 39151  97.9974  25.5864 0015536 251.4067 108.5458 14.81197503510221
CUBEBUG-1 (CAPITAN BETO)
1 39153U 13018D   22280.54046118  .00003877  00000+0  49516-3 0  9999
2 39153  98.0208  30.7281 0015460 244.5760 115.3852 14.81941979510357
